INTELSAT 23 (IS-23)     
1 38867U 12057A   26189.77420633 -.00000270  00000+0  00000+0 0  9993
2 38867   0.0125  26.7213 0000379 186.9573 298.7621  1.00270303 50175
FM-6                    
1 39360U 13058A   26189.61167403  .00000000  00000+0  00000+0 0  9990
2 39360   0.0459  69.0588 0002607 113.2194 208.1550  1.00271072 46284
INTELSAT 30 (IS-30)     
1 40271U 14062A   26189.90845905 -.00000137  00000+0  00000+0 0  9993
2 40271   0.0193  51.0103 0001152 339.3308 128.5083  1.00270982  7011
DIRECTV 14              
1 40333U 14078B   26189.60473888 -.00000111  00000+0  00000+0 0  9995
2 40333   0.0094  27.8117 0000391 314.0682  63.1432  1.00270853 42259
DIRECTV 15              
1 40663U 15026A   26189.90689904 -.00000088  00000+0  00000+0 0  9999
2 40663   0.0172  69.0678 0000194 237.3723 204.0239  1.00269471 40686
SKY MEXICO-1            
1 40664U 15026B   26189.84039352 -.00000220  00000+0  00000+0 0  9997
2 40664   0.0141 336.3187 0002446 154.0085  20.2030  1.00270098 40679
INTELSAT 34 (IS-34)     
1 40874U 15039A   26189.84498687 -.00000271  00000+0  00000+0 0  9990
2 40874   0.0091 349.1918 0000282   7.8662 178.4373  1.00269953 39854
INTELSAT 31 (IS-31)     
1 41581U 16035A   26189.99099404 -.00000136  00000+0  00000+0 0  9993
2 41581   0.0271 258.5469 0001038  24.0943 266.0020  1.00270030 36901
INTELSAT 36 (IS-36)     
1 41747U 16053A   26188.80017598 -.00000012  00000+0  00000+0 0  9993
2 41747   0.0091  10.2892 0000975  27.8198 244.1989  1.00285795 36163
INTELSAT 32E (IS-32E)   
1 41945U 17007B   26189.77611301 -.00000255  00000+0  00000+0 0  9991
2 41945   0.0157   6.8744 0000683 316.4422 199.6267  1.00268707 34442
INTELSAT 35E (IS-35E)   
1 42818U 17041A   26189.77784634  .00000000  00000+0  00000+0 0  9996
2 42818   0.0242  30.5009 0001593  78.4214  63.3418  1.00269609 33031
INTELSAT 37E (IS-37E)   
1 42950U 17059A   26189.78113970 -.00000126  00000+0  00000+0 0  9992
2 42950   0.0029 104.4376 0002555   9.9273  75.5800  1.00271046 32286
AZERSPACE 2 (IS-38)     
1 43632U 18074A   26189.84767019  .00000000  00000+0  00000+0 0  9994
2 43632   0.0254  33.4804 0001199  88.7944 154.7909  1.00271586 28660
HORIZONS-3E             
1 43633U 18074B   26189.81812008 -.00000016  00000+0  00000+0 0  9999
2 43633   0.0376 211.0417 0000993  71.0752 108.1787  1.00271917 28556
AT&T T-16               
1 44333U 19034A   26189.90724572 -.00000102  00000+0  00000+0 0  9998
2 44333   0.0150  69.4947 0000821 234.2043 208.9039  1.00276266 25854
INTELSAT 39 (IS-39)     
1 44476U 19049B   26189.90878258  .00000000  00000+0  00000+0 0  9999
2 44476   0.0249  29.7598 0000867 289.1456 357.0558  1.00270097 25341
GALAXY 30 (G-30)        
1 46114U 20056C   26189.75990626  .00000051  00000+0  00000+0 0  9993
2 46114   0.0160  50.7515 0002065  58.6905 325.8349  1.00270727 21502
GALAXY 33 (G-33)        
1 54026U 22128A   26189.68703485  .00000094  00000+0  00000+0 0  9990
2 54026   0.0091 332.8911 0001866 141.4798 286.6050  1.00270041 13951
GALAXY 34 (G-34)        
1 54027U 22128B   26189.69031509  .00000000  00000+0  00000+0 0  9990
2 54027   0.0201  25.9532 0001439  97.0196 283.1943  1.00272678 14129
GALAXY 31 (G-31)        
1 54243U 22153A   26189.61817545  .00000000  00000+0  00000+0 0  9992
2 54243   0.0141  24.1780 0001110  92.6414 271.2962  1.00271859  7343
GALAXY 32 (G-32)        
1 54244U 22153B   26189.83796684 -.00000160  00000+0  00000+0 0  9995
2 54244   0.0080  13.2899 0001575  35.0160  89.1494  1.00271791 13360
GALAXY 35 (G-35)        
1 54741U 22170A   26189.83744684 -.00000148  00000+0  00000+0 0  9995
2 54741   0.0164 284.8558 0002001 186.8746  23.4340  1.00271030 13113
GALAXY 36 (G-36)        
1 54742U 22170B   26189.83822684 -.00000171  00000+0  00000+0 0  9999
2 54742   0.0246 124.3121 0002509 333.3763  41.8600  1.00272061 12993
GALAXY 37 (G-37)        
1 57493U 23112A   26189.90204569  .00000062  00000+0  00000+0 0  9994
2 57493   0.0186  43.6875 0001807  72.7659   8.1390  1.00272565 10763
